IXPE                    
1 49954U 21121A   24227.91667824  .00015051  00000+0  11347-2 0  9997
2 49954   0.2318 317.5576 0009073  73.2248 159.2800 14.99130078  5648
